ONEWEB-0216             
1 48801U 21045AL  23256.81156331 -.00000039  00000+0 -13828-3 0  9997
2 48801  87.8942  99.8071 0001825  96.9504 263.1834 13.15549606111857
ONEWEB-0239             
1 48802U 21045AM  23256.81581353 -.00000149  00000+0 -43022-3 0  9995
2 48802  87.8951  99.7571 0002689  78.3072 281.8360 13.15546039111897
ONEWEB-0249             
1 48967U 21060A   23257.39636431  .00000044  00000+0  81945-4 0  9995
2 48967  87.8998  69.1620 0001679  88.1774 271.9549 13.16594882108426
ONEWEB-0250             
1 48968U 21060B   23256.86862599  .00000137  00000+0  32559-3 0  9992
2 48968  87.8998  69.2535 0002074  85.9021 274.2347 13.16596065107047
ONEWEB-0252             
1 48970U 21060D   23257.04806592 -.00000068  00000+0 -21088-3 0  9997
2 48970  87.8997  69.2250 0001739  96.9141 263.2188 13.16595474108422
ONEWEB-0253             
1 48971U 21060E   23256.88549849 -.00000108  00000+0 -31577-3 0  9997
2 48971  87.8996  69.3349 0002153  93.7671 266.3706 13.16591875107044
ONEWEB-0254             
1 48972U 21060F   23257.04594892 -.00000006  00000+0 -50572-4 0  9999
2 48972  87.8998  69.2146 0002087  91.0790 269.0580 13.16595463108341
ONEWEB-0255             
1 48973U 21060G   23257.38794744  .00000259  00000+0  64481-3 0  9996
2 48973  87.8999  69.1821 0001715  89.5976 270.5351 13.16596230108477
